<?xml version="1.0" encoding="UTF-8"?>
<kml xmlns="http://www.opengis.net/kml/2.2">
  <Document>
    <name>Parker 400 — BeamNG map frame (match this in MapNG)</name>
    <Style id="frame">
      <LineStyle><color>ff00a5ff</color><width>3</width></LineStyle>
      <PolyStyle><color>3300a5ff</color></PolyStyle>
    </Style>
    <Style id="course">
      <LineStyle><color>ff47c7f2</color><width>3</width></LineStyle>
    </Style>
    <Style id="pin">
      <IconStyle>
        <color>ff00ffff</color>
        <scale>1.1</scale>
      </IconStyle>
    </Style>
    <Placemark>
      <name>BeamNG world square (65536 m) — SELECT THIS AREA IN MAPNG</name>
      <styleUrl>#frame</styleUrl>
      <Polygon>
        <outerBoundaryIs><LinearRing>
          <coordinates>
            -114.25247320,33.79178089,0
            -113.54408369,33.79178089,0
            -113.53951881,34.38049810,0
            -114.25285106,34.38049810,0
            -114.25247320,33.79178089,0
          </coordinates>
        </LinearRing></outerBoundaryIs>
      </Polygon>
    </Placemark>
    <Placemark>
      <name>2026 CTUTV race line (from official GPX)</name>
      <styleUrl>#course</styleUrl>
      <LineString>
        <tessellate>1</tessellate>
        <coordinates>
          -114.16563761,34.13119637,0 -114.16406761,34.13200763,0 -114.16203301,34.13313502,0 -114.16105521,34.13440194,0 -114.15926524,34.13543632,0 -114.15677591,34.13673032,0 -114.15382508,34.13901042,0 -114.15153551,34.14018726,0 -114.15004532,34.14147243,0 -114.15146395,34.14351469,0 -114.15461258,34.14569177,0 -114.15643122,34.14622809,0 -114.15826216,34.14786531,0 -114.15917124,34.14947958,0 -114.16015094,34.15076121,0 -114.16162521,34.15176439,0 -114.16367379,34.15233839,0 -114.16562873,34.15229835,0 -114.16844439,34.15247909,0 -114.16998598,34.15251147,0 -114.17195350,34.15319968,0 -114.17323795,34.15438712,0 -114.17435099,34.15554690,0 -114.17566666,34.15728008,0 -114.17787809,34.15909215,0 -114.18029903,34.15978213,0 -114.18198820,34.15898500,0 -114.18207244,34.15748966,0 -114.18213103,34.15617741,0 -114.18403136,34.15560577,0 -114.18568840,34.15477862,0 -114.18691506,34.15351288,0 -114.18835139,34.15351641,0 -114.19001542,34.15312491,0 -114.19151088,34.15208288,0 -114.19361805,34.15182032,0 -114.19584544,34.15163134,0 -114.19827413,34.15098080,0 -114.19768655,34.14782528,0 -114.19651924,34.14629815,0 -114.19479785,34.14460029,0 -114.19277060,34.14374900,0 -114.19052850,34.14370132,0 -114.18849840,34.14344758,0 -114.18703536,34.14226602,0 -114.18603768,34.14028499,0 -114.18565949,34.13882379,0 -114.18450682,34.13682392,0 -114.18341523,34.13561411,0 -114.18267936,34.13412819,0 -114.18161490,34.13273940,0 -114.18022039,34.13168736,0 -114.17691133,34.13060766,0 -114.17491160,34.12983467,0 -114.17172777,34.12901694,0 -114.16917053,34.12831872,0 -114.16678043,34.12767408,0 -114.16475675,34.12672742,0 -114.16306980,34.12509491,0 -114.16064056,34.12321513,0 -114.15868442,34.12271060,0 -114.15668422,34.12216663,0 -114.15408872,34.12180869,0 -114.15228002,34.12098978,0 -114.15033390,34.12053824,0 -114.14872567,34.11993892,0 -114.14572403,34.11875501,0 -114.14330327,34.11783603,0 -114.14086442,34.11746749,0 -114.13907900,34.11722317,0 -114.13713318,34.11656969,0 -114.13442906,34.11633126,0 -114.13260480,34.11579435,0 -114.12707862,34.11443736,0 -114.12526561,34.11415419,0 -114.12346921,34.11360315,0 -114.12077054,34.11297793,0 -114.11947814,34.11186997,0 -114.11689756,34.11128949,0 -114.11511803,34.11104282,0 -114.11311425,34.11107873,0 -114.11169985,34.11188880,0 -114.11027505,34.11310156,0 -114.10642863,34.11332351,0 -114.10459334,34.11333646,0 -114.10299907,34.11275304,0 -114.10077376,34.11246751,0 -114.09883957,34.11254581,0 -114.09727296,34.11266179,0 -114.09566120,34.11306094,0 -114.09220429,34.11224674,0 -114.08997295,34.11115585,0 -114.08784366,34.11145727,0 -114.08563474,34.11121590,0 -114.08322962,34.11041583,0 -114.08105331,34.10975353,0 -114.07890137,34.10999019,0 -114.07685678,34.11022391,0 -114.07454943,34.11023392,0 -114.07206704,34.10984007,0 -114.07017605,34.10864850,0 -114.06781376,34.10742809,0 -114.06630652,34.10643022,0 -114.06326007,34.10494253,0 -114.06108296,34.10495901,0 -114.05916277,34.10525926,0 -114.05691249,34.10565193,0 -114.05430023,34.10608229,0 -114.05153244,34.10557422,0 -114.04961666,34.10535640,0 -114.04744494,34.10473589,0 -114.04567618,34.10383280,0 -114.04351370,34.10402472,0 -114.04122485,34.10373213,0 -114.03961117,34.10321052,0 -114.03835644,34.10199482,0 -114.03679989,34.10136607,0 -114.03307998,34.10069435,0 -114.03067155,34.10053304,0 -114.02738361,34.10040411,0 -114.02538451,34.10033876,0 -114.02337102,34.10001614,0 -114.02072945,34.09984777,0 -114.01881018,34.10037114,0 -114.01684936,34.10102815,0 -114.01524457,34.10141553,0 -114.01275345,34.10136077,0 -114.01028096,34.10092041,0 -114.00884924,34.10147970,0 -114.01392611,34.10939205,0 -114.01314916,34.11059657,0 -114.01165872,34.10869855,0 -114.01041584,34.10709723,0 -114.00901503,34.10523394,0 -114.00797776,34.10330060,0 -114.00712581,34.10149559,0 -114.00609442,34.10045768,0 -114.00384381,34.10001732,0 -114.00205431,34.10032875,0 -113.99991993,34.10096928,0 -113.99802536,34.10090216,0 -113.99572024,34.10097104,0 -113.99224796,34.10122478,0 -113.99020640,34.10166573,0 -113.98859999,34.10265536,0 -113.98548479,34.10450511,0 -113.98374984,34.10399175,0 -113.98179873,34.10404768,0 -113.98010322,34.10507146,0 -113.97800528,34.10552713,0 -113.97608721,34.10517331,0 -113.97434333,34.10536111,0 -113.97197394,34.10574966,0 -113.96995172,34.10684468,0 -113.96767413,34.10744222,0 -113.96431209,34.10833177,0 -113.96155104,34.10862849,0 -113.95887863,34.10749580,0 -113.95638985,34.10632307,0 -113.95505320,34.10556304,0 -113.95114238,34.10371505,0 -113.94906356,34.10271129,0 -113.94404850,34.10051302,0 -113.93948353,34.09837833,0 -113.93716066,34.09729450,0 -113.93559393,34.09655037,0 -113.93434332,34.09520986,0 -113.93318802,34.09363857,0 -113.93006026,34.09356969,0 -113.92788882,34.09278375,0 -113.92674571,34.09144972,0 -113.92498468,34.09127899,0 -113.92258447,34.09026816,0 -113.92021313,34.08913959,0 -113.91752455,34.08787797,0 -113.91538800,34.08672644,0 -113.91362457,34.08646034,0 -113.91181500,34.08659928,0 -113.91045607,34.08570325,0 -113.90933889,34.08396065,0 -113.90828486,34.08288742,0 -113.90639129,34.08328598,0 -113.90493283,34.08283679,0 -113.90255811,34.08158223,0 -113.90120369,34.08066383,0 -113.89910100,34.08090992,0 -113.89707970,34.08025055,0 -113.89521886,34.07925150,0 -113.89387407,34.07806229,0 -113.88891196,34.07597352,0 -113.88803243,34.07450820,0 -113.88756613,34.07219749,0 -113.88757021,34.07050375,0 -113.88871652,34.06916089,0 -113.89011634,34.06767143,0 -113.89140710,34.06645102,0 -113.89276909,34.06498099,0 -113.89345081,34.06354276,0 -113.89352658,34.06223581,0 -113.89417864,34.06054089,0 -113.89528245,34.05889366,0 -113.89575807,34.05703861,0 -113.89639826,34.05565925,0 -113.89866221,34.05424868,0 -113.90049720,34.05295409,0 -113.90233813,34.05197564,0 -113.90456679,34.04982270,0 -113.90591094,34.04781636,0 -113.90678709,34.04572759,0 -113.90725691,34.04422695,0 -113.90820475,34.04255322,0 -113.90965442,34.04100372,0 -113.91114542,34.03961317,0 -113.91280151,34.03812960,0 -113.91418825,34.03665663,0 -113.91538150,34.03545859,0 -113.91664478,34.03412809,0 -113.91780795,34.03255386,0 -113.91949007,34.03106853,0 -113.92075330,34.02949430,0 -113.92289283,34.02821443,0 -113.92527509,34.02609210,0 -113.92673147,34.02470391,0 -113.92838366,34.02337341,0 -113.93145631,34.02162256,0 -113.93324938,34.02062645,0 -113.93404734,34.01916231,0 -113.93472273,34.01781886,0 -113.93716985,34.01727959,0 -113.94127233,34.01775174,0 -113.94304082,34.01707178,0 -113.94283549,34.01567828,0 -113.94434475,34.01378673,0 -113.94762177,34.01186693,0 -113.95141135,34.00972164,0 -113.95310395,34.00842764,0 -113.95464658,34.00765348,0 -113.95591600,34.00654375,0 -113.95829958,34.00545933,0 -113.96039390,34.00493949,0 -113.96251230,34.00417710,0 -113.96567108,34.00235914,0 -113.96831191,34.00032925,0 -113.97025189,33.99877327,0 -113.97232963,33.99825402,0 -113.97449876,33.99754049,0 -113.97634139,33.99648551,0 -113.97815665,33.99501137,0 -113.98004802,33.99318693,0 -113.98193717,33.99136603,0 -113.98402048,33.98994604,0 -113.98512694,33.98844187,0 -113.98661317,33.98695654,0 -113.98810423,33.98464700,0 -113.98851390,33.98205900,0 -113.98880954,33.98050066,0 -113.98988022,33.97873451,0 -113.99262611,33.97704784,0 -113.99425231,33.97567024,0 -113.99529859,33.97424260,0 -113.99665285,33.97284911,0 -113.99817693,33.97166873,0 -113.99907797,33.96976776,0 -113.99834876,33.96833364,0 -113.99787273,33.96550191,0 -113.99688191,33.96455408,0 -113.99433727,33.96540949,0 -113.99115908,33.96581217,0 -113.98906710,33.96613773,0 -113.98694401,33.96612419,0 -113.98410778,33.96629492,0 -113.98218289,33.96677296,0 -113.97956636,33.96789505,0 -113.97779923,33.96910840,0 -113.97633566,33.96985960,0 -113.97446183,33.97004563,0 -113.97252284,33.97097051,0 -113.97060993,33.97142206,0 -113.96828954,33.97213146,0 -113.96660050,33.97325002,0 -113.96505445,33.97347138,0 -113.96345206,33.97326768,0 -113.96148930,33.97399416,0 -113.95967569,33.97468237,0 -113.95731509,33.97523459,0 -113.95510187,33.97563138,0 -113.95336578,33.97624129,0 -113.95011999,33.97843780,0 -113.94750908,33.98003734,0 -113.94551733,33.98038586,0 -113.94292243,33.98109527,0 -113.94083655,33.98203486,0 -113.93901555,33.98294090,0 -113.93571144,33.98427846,0 -113.93353087,33.98433851,0 -113.93189402,33.98421547,0 -113.93006693,33.98385871,0 -113.92754113,33.98397763,0 -113.92546410,33.98407359,0 -113.92325071,33.98462522,0 -113.92069052,33.98460932,0 -113.91810770,33.98457047,0 -113.91546943,33.98519156,0 -113.91196548,33.98648792,0 -113.90906164,33.98792144,0 -113.90725385,33.98877273,0 -113.90627480,33.98999020,0 -113.90135625,33.99083736,0 -113.89957431,33.99156855,0 -113.89546193,33.99190176,0 -113.89239507,33.99233447,0 -113.88969320,33.99314278,0 -113.88732589,33.99351897,0 -113.88546392,33.99395285,0 -113.88272957,33.99468109,0 -113.88058772,33.99513146,0 -113.87803561,33.99552885,0 -113.87607551,33.99634893,0 -113.87427580,33.99643783,0 -113.87230916,33.99691116,0 -113.86992771,33.99777539,0 -113.86796858,33.99885922,0 -113.86613168,33.99972699,0 -113.86409709,34.00011260,0 -113.86188500,33.99941144,0 -113.85964993,33.99860548,0 -113.85759338,33.99826874,0 -113.85568464,33.99773242,0 -113.85391937,33.99737153,0 -113.85124263,33.99781130,0 -113.84838802,33.99850128,0 -113.84672205,33.99799910,0 -113.84601883,33.99633892,0 -113.84434936,33.99498546,0 -113.84191222,33.99366673,0 -113.83903038,33.99207779,0 -113.83661626,33.99056066,0 -113.83509680,33.98972351,0 -113.83338907,33.98825819,0 -113.83174859,33.98701659,0 -113.83005742,33.98617943,0 -113.82629197,33.98608229,0 -113.82048002,33.98604873,0 -113.81771229,33.98607758,0 -113.81542195,33.98604756,0 -113.81269828,33.98606757,0 -113.80926902,33.98605580,0 -113.80688779,33.98618237,0 -113.80304600,33.98617119,0 -113.79980691,33.98618061,0 -113.79646256,33.98607758,0 -113.79471748,33.98635310,0 -113.79200072,33.98537053,0 -113.78878320,33.98370799,0 -113.78830575,33.98230685,0 -113.78997904,33.98173932,0 -113.79208456,33.98075263,0 -113.79466114,33.97997612,0 -113.79720042,33.97942272,0 -113.79930912,33.97848195,0 -113.80160335,33.97702664,0 -113.80288330,33.97581683,0 -113.80373294,33.97477421,0 -113.80486903,33.97334304,0 -113.80653525,33.97193659,0 -113.80820738,33.97077741,0 -113.81039669,33.96936802,0 -113.81167650,33.96797806,0 -113.81280174,33.96685538,0 -113.81452464,33.96557374,0 -113.81597033,33.96420497,0 -113.81750158,33.96337606,0 -113.81879108,33.96167879,0 -113.81982413,33.96049841,0 -113.81915276,33.95904310,0 -113.81810737,33.95806465,0 -113.81405325,33.95961533,0 -113.80826091,33.96173707,0 -113.80645170,33.96310819,0 -113.80594092,33.96443163,0 -113.80550836,33.96602823,0 -113.80501194,33.96838310,0 -113.80470570,33.97013453,0 -113.80379417,33.97167579,0 -113.80175064,33.97314817,0 -113.80151570,33.97496672,0 -113.80024904,33.97712672,0 -113.79854836,33.97826825,0 -113.79690503,33.97898118,0 -113.79476929,33.97947806,0 -113.79292148,33.97973533,0 -113.79088698,33.98028284,0 -113.78922224,33.98084918,0 -113.78719571,33.98091159,0 -113.78537055,33.98029697,0 -113.78321564,33.98048065,0 -113.78112337,33.98135371,0 -113.78031044,33.98265713,0 -113.77798116,33.98377511,0 -113.77508965,33.98528929,0 -113.77227197,33.98650499,0 -113.76780893,33.98663098,0 -113.76065509,33.98658800,0 -113.75746530,33.98653384,0 -113.75477618,33.98645789,0 -113.75286378,33.98652501,0 -113.74906162,33.98653678,0 -113.73876359,33.98654797,0 -113.73067069,33.98645907,0 -113.72391934,33.98656504,0 -113.71909448,33.98662803,0 -113.71154007,33.98661214,0 -113.70652378,33.98662509,0 -113.70358348,33.98664981,0 -113.69797371,33.98664687,0 -113.68983794,33.98660860,0 -113.68576419,33.98656210,0 -113.68288125,33.98661214,0 -113.67540603,33.98665099,0 -113.66741608,33.98668455,0 -113.66235696,33.98673282,0 -113.65943511,33.98675755,0 -113.65443261,33.98671987,0 -113.65026410,33.98672694,0 -113.64640049,33.98657681,0 -113.64324619,33.98631719,0 -113.64067543,33.98629011,0 -113.63839866,33.98636488,0 -113.63567853,33.98616353,0 -113.63371984,33.98549122,0 -113.63016784,33.98430260,0 -113.62623152,33.98295090,0 -113.62210885,33.98156448,0 -113.61719156,33.97991018,0 -113.61337518,33.97862383,0 -113.60922887,33.97722563,0 -113.60507651,33.97579799,0 -113.60300228,33.97536940,0 -113.60029655,33.97449575,0 -113.59880608,33.97575619,0 -113.59715637,33.97784496,0 -113.59918001,33.97870566,0 -113.60139975,33.97965291,0 -113.60353677,33.98055541,0 -113.60727849,33.98225798,0 -113.61054682,33.98375097,0 -113.61385246,33.98540998,0 -113.61712666,33.98701364,0 -113.62084545,33.98872328,0 -113.62238888,33.98948272,0 -113.62624334,33.99121649,0 -113.63124711,33.99354723,0 -113.63371078,33.99465460,0 -113.63605645,33.99579142,0 -113.63862344,33.99697297,0 -113.64087529,33.99792728,0 -113.64380961,33.99920656,0 -113.64701714,34.00063715,0 -113.65080188,34.00232618,0 -113.65320833,34.00335525,0 -113.65800773,34.00533276,0 -113.66345341,34.00756635,0 -113.66584785,34.00840821,0 -113.66849198,34.00839467,0 -113.67254515,34.00837642,0 -113.67657996,34.00834228,0 -113.67968361,34.00832226,0 -113.68035528,34.00939844,0 -113.68035081,34.01269231,0 -113.68036034,34.01881438,0 -113.68035661,34.02675794,0 -113.68034490,34.03030555,0 -113.68008804,34.03258330,0 -113.68000740,34.03473565,0 -113.67993633,34.03683266,0 -113.67995430,34.03889199,0 -113.67974518,34.04113971,0 -113.67941455,34.04257677,0 -113.67948167,34.04554037,0 -113.67925293,34.04681142,0 -113.67839120,34.04841331,0 -113.67786951,34.05052387,0 -113.67800948,34.05214519,0 -113.67785949,34.05504875,0 -113.67774651,34.05678487,0 -113.67766021,34.05845624,0 -113.67751093,34.06031423,0 -113.67865164,34.06133213,0 -113.68060839,34.06162060,0 -113.68251869,34.06113490,0 -113.68357532,34.05997925,0 -113.68515859,34.05892251,0 -113.68676955,34.05868702,0 -113.68828764,34.05746896,0 -113.68939874,34.05515001,0 -113.69037130,34.05329084,0 -113.69133518,34.05192442,0 -113.69329721,34.04998578,0 -113.69562745,34.04920161,0 -113.69822473,34.04782931,0 -113.70096824,34.04682731,0 -113.70375845,34.04572759,0 -113.70647428,34.04482155,0 -113.70837728,34.04391022,0 -113.71053670,34.04337390,0 -113.71263312,34.04328794,0 -113.71464780,34.04221118,0 -113.71616221,34.04114148,0 -113.71726186,34.04016656,0 -113.71862780,34.03832977,0 -113.71980445,34.03691743,0 -113.72181877,34.03573352,0 -113.72299728,34.03422641,0 -113.72501233,34.03365771,0 -113.72571247,34.03231072,0 -113.72647038,34.03028200,0 -113.72740377,34.02900920,0 -113.72818350,34.02751503,0 -113.72912675,34.02611918,0 -113.73043789,34.02472922,0 -113.73147563,34.02331865,0 -113.73253665,34.02141180,0 -113.73324776,34.01996650,0 -113.73557324,34.01970687,0 -113.73924938,34.02081425,0 -113.74285525,34.02206115,0 -113.75214177,34.02503594,0 -113.76143625,34.02797246,0 -113.76886691,34.03057224,0 -113.77257776,34.03187684,0 -113.77476446,34.03213587,0 -113.77699744,34.03295066,0 -113.77907342,34.03348521,0 -113.78104820,34.03437830,0 -113.78420449,34.03584656,0 -113.78776327,34.03710936,0 -113.79518507,34.03921755,0 -113.79673954,34.03996699,0 -113.80357780,34.04223061,0 -113.80726232,34.04346279,0 -113.81114612,34.04480036,0 -113.81455520,34.04603019,0 -113.81585497,34.04691915,0 -113.81657899,34.04802358,0 -113.81850455,34.04928167,0 -113.82016185,34.04984449,0 -113.82196208,34.05054683,0 -113.82414346,34.05231474,0 -113.82541837,34.05308596,0 -113.82808215,34.05392901,0 -113.83008586,34.05477028,0 -113.83284171,34.05554445,0 -113.83575370,34.05720345,0 -113.83962721,34.05937994,0 -113.84168873,34.05988153,0 -113.84392828,34.05979145,0 -113.84597110,34.05899021,0 -113.84766604,34.05913032,0 -113.84981944,34.05993863,0 -113.85259360,34.06101127,0 -113.85460824,34.06206272,0 -113.85712745,34.06241949,0 -113.86221253,34.06356807,0 -113.86708711,34.06442407,0 -113.87023992,34.06507460,0 -113.87618798,34.06625203,0 -113.88155275,34.06894718,0 -113.88318863,34.06917796,0 -113.88491087,34.06969780,0 -113.88604425,34.07032831,0 -113.88476649,34.07164704,0 -113.88339967,34.07282094,0 -113.88417827,34.07406961,0 -113.88763400,34.07559086,0 -113.88678880,34.07716626,0 -113.88539252,34.07860450,0 -113.88500033,34.08048133,0 -113.88527205,34.08177474,0 -113.88641783,34.08313703,0 -113.88746144,34.08484314,0 -113.88934196,34.08746823,0 -113.89075664,34.09018633,0 -113.89136227,34.09156805,0 -113.89256141,34.09317996,0 -113.89379915,34.09494022,0 -113.89530159,34.09605702,0 -113.89685111,34.09693951,0 -113.89896916,34.09749231,0 -113.90020525,34.09876689,0 -113.90098890,34.09993137,0 -113.90220857,34.10104228,0 -113.90296264,34.10213788,0 -113.90404353,34.10432673,0 -113.90462976,34.10565311,0 -113.90558814,34.10731388,0 -113.90591257,34.10890224,0 -113.90767395,34.11092684,0 -113.90893352,34.11250225,0 -113.91008789,34.11387102,0 -113.91264025,34.11546467,0 -113.91376269,34.11642016,0 -113.91509393,34.11788607,0 -113.91887691,34.12115168,0 -113.92097683,34.12312506,0 -113.92254620,34.12425834,0 -113.92301723,34.12571542,0 -113.92484333,34.12731437,0 -113.92526915,34.12891274,0 -113.92597911,34.13040219,0 -113.92615201,34.13236498,0 -113.92576046,34.13402634,0 -113.92729165,34.13672502,0 -113.92810064,34.13797369,0 -113.92863411,34.13975279,0 -113.92931410,34.14131996,0 -113.93025227,34.14245382,0 -113.93049407,34.14381612,0 -113.93222507,34.14641707,0 -113.93282323,34.14938479,0 -113.93362847,34.15234957,0 -113.93361867,34.15434238,0 -113.93429678,34.15634578,0 -113.93515155,34.15783818,0 -113.93617496,34.15909863,0 -113.93664180,34.16066638,0 -113.93893818,34.16167191,0 -113.94116974,34.16248493,0 -113.94208075,34.16402619,0 -113.94293617,34.16513533,0 -113.94337030,34.16674724,0 -113.94418844,34.16891078,0 -113.94562277,34.17014355,0 -113.94720407,34.17126094,0 -113.94744223,34.17276805,0 -113.94779658,34.17420982,0 -113.94788454,34.17550323,0 -113.94856160,34.17755314,0 -113.94917270,34.17929928,0 -113.94952094,34.18114432,0 -113.95069855,34.18289634,0 -113.95195408,34.18430161,0 -113.95311238,34.18562622,0 -113.95473449,34.18703856,0 -113.95629488,34.18666472,0 -113.95843378,34.18656817,0 -113.95910167,34.18770793,0 -113.96036161,34.18888536,0 -113.96234715,34.18893128,0 -113.96392727,34.18939755,0 -113.96519683,34.19073335,0 -113.96647135,34.19157345,0 -113.96771848,34.19281093,0 -113.96935326,34.19441401,0 -113.97094517,34.19610539,0 -113.97207818,34.19721277,0 -113.97344003,34.19820005,0 -113.97510664,34.19969244,0 -113.97721535,34.20064028,0 -113.97947472,34.20142445,0 -113.98112331,34.20251711,0 -113.98334746,34.20347201,0 -113.98436812,34.20463767,0 -113.98597776,34.20598230,0 -113.98831467,34.20687833,0 -113.98982340,34.20848552,0 -113.99119780,34.20973773,0 -113.99372876,34.21199251,0 -113.99609920,34.21385757,0 -113.99807463,34.21421786,0 -113.99971933,34.21384344,0 -114.00112331,34.21290149,0 -114.00262058,34.21192952,0 -114.00418897,34.21097227,0 -114.00535482,34.20982780,0 -114.00756820,34.20977187,0 -114.00926799,34.20858620,0 -114.01035278,34.20703610,0 -114.01156358,34.20482017,0 -114.01396785,34.20236934,0 -114.01657315,34.20004509,0 -114.01798879,34.19910785,0 -114.02071625,34.19646686,0 -114.02308161,34.19365986,0 -114.02472673,34.19283919,0 -114.03089683,34.19103712,0 -114.03416830,34.19010872,0 -114.03914442,34.18871581,0 -114.04116843,34.18799758,0 -114.04439088,34.18572572,0 -114.04661705,34.18372702,0 -114.04782473,34.18253840,0 -114.05072075,34.17952064,0 -114.05241630,34.17761378,0 -114.05303912,34.17586882,0 -114.05399755,34.17301296,0 -114.05337877,34.17118617,0 -114.05280429,34.17009469,0 -114.05216160,34.16854106,0 -114.05107040,34.16714875,0 -114.05117112,34.16569756,0 -114.05197433,34.16410625,0 -114.05058127,34.16326145,0 -114.04890445,34.16356876,0 -114.04938812,34.16244195,0 -114.04951214,34.16110674,0 -114.04953199,34.15953016,0 -114.04851765,34.15821791,0 -114.04640649,34.15600139,0 -114.04648289,34.15466500,0 -114.04622841,34.15336511,0 -114.04579764,34.15199104,0 -114.04511271,34.15073531,0 -114.04334306,34.14942070,0 -114.04186808,34.14804311,0 -114.04162863,34.14636232,0 -114.04239193,34.14480810,0 -114.04323610,34.14296895,0 -114.04481591,34.14103207,0 -114.04578608,34.13987465,0 -114.04699281,34.13847410,0 -114.04698890,34.13708237,0 -114.04613670,34.13595085,0 -114.04441763,34.13514608,0 -114.04312869,34.13367370,0 -114.04143418,34.13270231,0 -114.03986669,34.13152664,0 -114.03766300,34.13057410,0 -114.03426464,34.13212537,0 -114.03158425,34.13200645,0 -114.02932016,34.12999480,0 -114.02766945,34.12822983,0 -114.02624101,34.12665854,0 -114.02576546,34.12550053,0 -114.02473900,34.12422832,0 -114.02389760,34.12289370,0 -114.02273807,34.12100745,0 -114.02123859,34.11882625,0 -114.01938977,34.11643488,0 -114.01832605,34.11472407,0 -114.01875924,34.11331762,0 -114.02141660,34.11191471,0 -114.02441987,34.11272714,0 -114.02656046,34.11294084,0 -114.02829390,34.11336413,0 -114.03140238,34.11353015,0 -114.03437487,34.11378977,0 -114.03677541,34.11418716,0 -114.03857911,34.11397345,0 -114.04043389,34.11420246,0 -114.04224396,34.11399877,0 -114.04368115,34.11471700,0 -114.04557341,34.11546820,0 -114.04774756,34.11527334,0 -114.05041642,34.11518444,0 -114.05235351,34.11595920,0 -114.05410849,34.11720904,0 -114.05617348,34.11766353,0 -114.05784319,34.11850540,0 -114.05997468,34.11920067,0 -114.06245886,34.12038164,0 -114.06481919,34.12078197,0 -114.06722282,34.12032100,0 -114.06899412,34.11994128,0 -114.07099117,34.11885627,0 -114.07258049,34.11840061,0 -114.07523695,34.11808976,0 -114.07683304,34.11784603,0 -114.07845943,34.11828463,0 -114.08070943,34.11825696,0 -114.08214322,34.11915475,0 -114.08390498,34.11944911,0 -114.08564683,34.11921951,0 -114.08858572,34.11825284,0 -114.09042841,34.11754638,0 -114.09221176,34.11705892,0 -114.09437313,34.11678929,0 -114.09627607,34.11735563,0 -114.09759347,34.11818513,0 -114.09920553,34.11881801,0 -114.09978982,34.12024682,0 -114.10156300,34.11933843,0 -114.10315545,34.11848185,0 -114.10564461,34.11889689,0 -114.10736745,34.11842239,0 -114.10937851,34.11839472,0 -114.11127896,34.11874147,0 -114.11363743,34.11904172,0 -114.11519798,34.11940731,0 -114.11678754,34.11994069,0 -114.11880237,34.12046936,0 -114.12049875,34.12088264,0 -114.12276024,34.12158792,0 -114.12449123,34.12151021,0 -114.12580962,34.12157909,0 -114.12716795,34.12152316,0 -114.12906274,34.12201180,0 -114.13189502,34.12317216,0 -114.13289156,34.12474580,0 -114.13287404,34.12623761,0 -114.13289989,34.12775885,0 -114.13384599,34.12934250,0 -114.13498313,34.13040219,0 -114.13584550,34.13181276,0 -114.13761871,34.13263579,0 -114.13924127,34.13330810,0 -114.14105252,34.13476636,0 -114.14305005,34.13535272,0 -114.14401098,34.13642124,0 -114.14633035,34.13767697,0 -114.14748516,34.13936718,0 -114.14883079,34.13838108,0 -114.15040410,34.13720541,0 -114.15173833,34.13613571,0 -114.15303623,34.13508309,0 -114.15431555,34.13416174,0 -114.15649125,34.13271939,0 -114.15859506,34.12974990,0 -114.16035098,34.12987588,0 -114.16192988,34.12984350,0 -114.16316496,34.12883797,0 -114.16492598,34.12862898,0 -114.16674424,34.12937606,0 -114.17124271,34.13131824,0 -114.16986791,34.13132295,0 -114.16784241,34.13116458,0 -114.16628112,34.13156079,0 -114.16557084,34.13281535,0 -114.16415952,34.13336403,0 -114.16260205,34.13303199,0
        </coordinates>
      </LineString>
    </Placemark>
    <Placemark>
      <name>SW corner 33.791781,-114.252473</name>
      <styleUrl>#pin</styleUrl>
      <Point><coordinates>-114.25247320,33.79178089,0</coordinates></Point>
    </Placemark>
    <Placemark>
      <name>SE corner 33.791781,-113.544084</name>
      <styleUrl>#pin</styleUrl>
      <Point><coordinates>-113.54408369,33.79178089,0</coordinates></Point>
    </Placemark>
    <Placemark>
      <name>NE corner 34.380498,-113.539519</name>
      <styleUrl>#pin</styleUrl>
      <Point><coordinates>-113.53951881,34.38049810,0</coordinates></Point>
    </Placemark>
    <Placemark>
      <name>NW corner 34.380498,-114.252851</name>
      <styleUrl>#pin</styleUrl>
      <Point><coordinates>-114.25285106,34.38049810,0</coordinates></Point>
    </Placemark>
    <Placemark>
      <name>Map center 34.086139,-113.897239</name>
      <styleUrl>#pin</styleUrl>
      <Point><coordinates>-113.89723930,34.08613949,0</coordinates></Point>
    </Placemark>
  </Document>
</kml>
